CCSDS_OMM_VERS = 2.0
CREATION_DATE  = 
ORIGINATOR     = 

OBJECT_NAME    = KUIPER-00268
OBJECT_ID      = 2026-030AC
CENTER_NAME    = EARTH
REF_FRAME      = TEME
TIME_SYSTEM    = UTC
MEAN_ELEMENT_THEORY = SGP/SGP4

EPOCH          = 2026-03-02T19:03:58.999104
MEAN_MOTION    = 15.35667063
ECCENTRICITY   = .0002173
INCLINATION    = 51.8837
RA_OF_ASC_NODE = 252.3610
ARG_OF_PERICENTER = 31.4192
MEAN_ANOMALY   = 328.6924

EPHEMERIS_TYPE = 0
CLASSIFICATION_TYPE = U
NORAD_CAT_ID   = 67790
ELEMENT_SET_NO = 999
REV_AT_EPOCH   = 403
BSTAR          = .91692E-3
MEAN_MOTION_DOT = .32044E-3
MEAN_MOTION_DDOT = 0

CCSDS_OMM_VERS = 2.0
CREATION_DATE  = 
ORIGINATOR     = 

OBJECT_NAME    = KUIPER-00270
OBJECT_ID      = 2026-030AD
CENTER_NAME    = EARTH
REF_FRAME      = TEME
TIME_SYSTEM    = UTC
MEAN_ELEMENT_THEORY = SGP/SGP4

EPOCH          = 2026-03-02T17:54:07.709184
MEAN_MOTION    = 15.34314518
ECCENTRICITY   = .0009948
INCLINATION    = 51.8794
RA_OF_ASC_NODE = 252.7739
ARG_OF_PERICENTER = 37.1014
MEAN_ANOMALY   = 323.0657

EPHEMERIS_TYPE = 0
CLASSIFICATION_TYPE = U
NORAD_CAT_ID   = 67791
ELEMENT_SET_NO = 999
REV_AT_EPOCH   = 402
BSTAR          = .68666E-3
MEAN_MOTION_DOT = .22882E-3
MEAN_MOTION_DDOT = 0

CCSDS_OMM_VERS = 2.0
CREATION_DATE  = 
ORIGINATOR     = 

OBJECT_NAME    = KUIPER-00274
OBJECT_ID      = 2026-030AE
CENTER_NAME    = EARTH
REF_FRAME      = TEME
TIME_SYSTEM    = UTC
MEAN_ELEMENT_THEORY = SGP/SGP4

EPOCH          = 2026-03-02T18:24:28.119168
MEAN_MOTION    = 15.31676115
ECCENTRICITY   = .0017229
INCLINATION    = 51.8822
RA_OF_ASC_NODE = 252.9141
ARG_OF_PERICENTER = 49.3654
MEAN_ANOMALY   = 310.8826

EPHEMERIS_TYPE = 0
CLASSIFICATION_TYPE = U
NORAD_CAT_ID   = 67792
ELEMENT_SET_NO = 999
REV_AT_EPOCH   = 402
BSTAR          = .17214E-3
MEAN_MOTION_DOT = .4993E-4
MEAN_MOTION_DDOT = 0

CCSDS_OMM_VERS = 2.0
CREATION_DATE  = 
ORIGINATOR     = 

OBJECT_NAME    = KUIPER-00275
OBJECT_ID      = 2026-030AF
CENTER_NAME    = EARTH
REF_FRAME      = TEME
TIME_SYSTEM    = UTC
MEAN_ELEMENT_THEORY = SGP/SGP4

EPOCH          = 2026-03-02T17:50:32.859168
MEAN_MOTION    = 15.34388755
ECCENTRICITY   = .0008706
INCLINATION    = 51.8827
RA_OF_ASC_NODE = 252.7660
ARG_OF_PERICENTER = 34.4058
MEAN_ANOMALY   = 325.7490

EPHEMERIS_TYPE = 0
CLASSIFICATION_TYPE = U
NORAD_CAT_ID   = 67793
ELEMENT_SET_NO = 999
REV_AT_EPOCH   = 402
BSTAR          = .69365E-3
MEAN_MOTION_DOT = .23167E-3
MEAN_MOTION_DDOT = 0

CCSDS_OMM_VERS = 2.0
CREATION_DATE  = 
ORIGINATOR     = 

OBJECT_NAME    = KUIPER-00276
OBJECT_ID      = 2026-030AG
CENTER_NAME    = EARTH
REF_FRAME      = TEME
TIME_SYSTEM    = UTC
MEAN_ELEMENT_THEORY = SGP/SGP4

EPOCH          = 2026-03-02T18:29:56.006304
MEAN_MOTION    = 15.31524899
ECCENTRICITY   = .0018295
INCLINATION    = 51.8816
RA_OF_ASC_NODE = 252.9368
ARG_OF_PERICENTER = 45.8212
MEAN_ANOMALY   = 314.4272

EPHEMERIS_TYPE = 0
CLASSIFICATION_TYPE = U
NORAD_CAT_ID   = 67794
ELEMENT_SET_NO = 999
REV_AT_EPOCH   = 402
BSTAR          = .68467E-3
MEAN_MOTION_DOT = .20941E-3
MEAN_MOTION_DDOT = 0

CCSDS_OMM_VERS = 2.0
CREATION_DATE  = 
ORIGINATOR     = 

OBJECT_NAME    = KUIPER-00279
OBJECT_ID      = 2026-030AH
CENTER_NAME    = EARTH
REF_FRAME      = TEME
TIME_SYSTEM    = UTC
MEAN_ELEMENT_THEORY = SGP/SGP4

EPOCH          = 2026-03-02T17:42:27.906336
MEAN_MOTION    = 15.35038041
ECCENTRICITY   = .0006148
INCLINATION    = 51.8788
RA_OF_ASC_NODE = 252.7203
ARG_OF_PERICENTER = 29.8669
MEAN_ANOMALY   = 330.2667

EPHEMERIS_TYPE = 0
CLASSIFICATION_TYPE = U
NORAD_CAT_ID   = 67795
ELEMENT_SET_NO = 999
REV_AT_EPOCH   = 402
BSTAR          = .71899E-3
MEAN_MOTION_DOT = .24526E-3
MEAN_MOTION_DDOT = 0

CCSDS_OMM_VERS = 2.0
CREATION_DATE  = 
ORIGINATOR     = 

OBJECT_NAME    = CREW DRAGON 12
OBJECT_ID      = 2026-031A
CENTER_NAME    = EARTH
REF_FRAME      = TEME
TIME_SYSTEM    = UTC
MEAN_ELEMENT_THEORY = SGP/SGP4

EPOCH          = 2026-03-02T13:02:22.015104
MEAN_MOTION    = 15.48401384
ECCENTRICITY   = .0008241
INCLINATION    = 51.6317
RA_OF_ASC_NODE = 107.6867
ARG_OF_PERICENTER = 149.4104
MEAN_ANOMALY   = 210.7366

EPHEMERIS_TYPE = 0
CLASSIFICATION_TYPE = U
NORAD_CAT_ID   = 67796
ELEMENT_SET_NO = 999
REV_AT_EPOCH   = 55496
BSTAR          = .19033E-3
MEAN_MOTION_DOT = .9842E-4
MEAN_MOTION_DDOT = 0

CCSDS_OMM_VERS = 2.0
CREATION_DATE  = 
ORIGINATOR     = 

OBJECT_NAME    = STARLINK-36800
OBJECT_ID      = 2026-032A
CENTER_NAME    = EARTH
REF_FRAME      = TEME
TIME_SYSTEM    = UTC
MEAN_ELEMENT_THEORY = SGP/SGP4

EPOCH          = 2026-03-02T20:00:01.999008
MEAN_MOTION    = 15.75141475
ECCENTRICITY   = .0001496
INCLINATION    = 97.2841
RA_OF_ASC_NODE = 247.9778
ARG_OF_PERICENTER = 106.9964
MEAN_ANOMALY   = 257.7511

EPHEMERIS_TYPE = 0
CLASSIFICATION_TYPE = U
NORAD_CAT_ID   = 67797
ELEMENT_SET_NO = 999
REV_AT_EPOCH   = 367
BSTAR          = .47616E-3
MEAN_MOTION_DOT = .71338E-3
MEAN_MOTION_DDOT = 0

CCSDS_OMM_VERS = 2.0
CREATION_DATE  = 
ORIGINATOR     = 

OBJECT_NAME    = STARLINK-36798
OBJECT_ID      = 2026-032B
CENTER_NAME    = EARTH
REF_FRAME      = TEME
TIME_SYSTEM    = UTC
MEAN_ELEMENT_THEORY = SGP/SGP4

EPOCH          = 2026-03-02T20:00:01.999008
MEAN_MOTION    = 15.80783468
ECCENTRICITY   = .0001336
INCLINATION    = 97.2849
RA_OF_ASC_NODE = 248.0043
ARG_OF_PERICENTER = 92.5334
MEAN_ANOMALY   = 336.6980

EPHEMERIS_TYPE = 0
CLASSIFICATION_TYPE = U
NORAD_CAT_ID   = 67798
ELEMENT_SET_NO = 999
REV_AT_EPOCH   = 361
BSTAR          = .29915E-3
MEAN_MOTION_DOT = .57453E-3
MEAN_MOTION_DDOT = 0

CCSDS_OMM_VERS = 2.0
CREATION_DATE  = 
ORIGINATOR     = 

OBJECT_NAME    = STARLINK-36804
OBJECT_ID      = 2026-032C
CENTER_NAME    = EARTH
REF_FRAME      = TEME
TIME_SYSTEM    = UTC
MEAN_ELEMENT_THEORY = SGP/SGP4

EPOCH          = 2026-03-02T20:00:01.999008
MEAN_MOTION    = 15.75137025
ECCENTRICITY   = .0001447
INCLINATION    = 97.2842
RA_OF_ASC_NODE = 247.9822
ARG_OF_PERICENTER = 99.3763
MEAN_ANOMALY   = 275.3672

EPHEMERIS_TYPE = 0
CLASSIFICATION_TYPE = U
NORAD_CAT_ID   = 67799
ELEMENT_SET_NO = 999
REV_AT_EPOCH   = 361
BSTAR          = .58261E-3
MEAN_MOTION_DOT = .87465E-3
MEAN_MOTION_DDOT = 0

CCSDS_OMM_VERS = 2.0
CREATION_DATE  = 
ORIGINATOR     = 

OBJECT_NAME    = STARLINK-36354
OBJECT_ID      = 2026-032D
CENTER_NAME    = EARTH
REF_FRAME      = TEME
TIME_SYSTEM    = UTC
MEAN_ELEMENT_THEORY = SGP/SGP4

EPOCH          = 2026-03-02T20:00:01.999008
MEAN_MOTION    = 15.77225043
ECCENTRICITY   = .000163
INCLINATION    = 97.2851
RA_OF_ASC_NODE = 248.0083
ARG_OF_PERICENTER = 85.8600
MEAN_ANOMALY   = 349.0923

EPHEMERIS_TYPE = 0
CLASSIFICATION_TYPE = U
NORAD_CAT_ID   = 67800
ELEMENT_SET_NO = 999
REV_AT_EPOCH   = 367
BSTAR          = -.13373E-1
MEAN_MOTION_DOT = -.1901538E-1
MEAN_MOTION_DDOT = 0

CCSDS_OMM_VERS = 2.0
CREATION_DATE  = 
ORIGINATOR     = 

OBJECT_NAME    = STARLINK-36773
OBJECT_ID      = 2026-032E
CENTER_NAME    = EARTH
REF_FRAME      = TEME
TIME_SYSTEM    = UTC
MEAN_ELEMENT_THEORY = SGP/SGP4

EPOCH          = 2026-03-02T20:00:01.999008
MEAN_MOTION    = 15.75160517
ECCENTRICITY   = .0001419
INCLINATION    = 97.2843
RA_OF_ASC_NODE = 247.9897
ARG_OF_PERICENTER = 86.4993
MEAN_ANOMALY   = 306.2388

EPHEMERIS_TYPE = 0
CLASSIFICATION_TYPE = U
NORAD_CAT_ID   = 67801
ELEMENT_SET_NO = 999
REV_AT_EPOCH   = 361
BSTAR          = .29505E-3
MEAN_MOTION_DOT = .4405E-3
MEAN_MOTION_DDOT = 0

