KUIPER-00268            
1 67790U 26030AC  26061.79443286  .00032044  00000+0  91692-3 0  9990
2 67790  51.8837 252.3610 0002173  31.4192 328.6924 15.35667063  4038
KUIPER-00270            
1 67791U 26030AD  26061.74592256  .00022882  00000+0  68666-3 0  9992
2 67791  51.8794 252.7739 0009948  37.1014 323.0657 15.34314518  4024
KUIPER-00274            
1 67792U 26030AE  26061.76699212  .00004993  00000+0  17214-3 0  9991
2 67792  51.8822 252.9141 0017229  49.3654 310.8826 15.31676115  4025
KUIPER-00275            
1 67793U 26030AF  26061.74343587  .00023167  00000+0  69365-3 0  9999
2 67793  51.8827 252.7660 0008706  34.4058 325.7490 15.34388755  4023
KUIPER-00276            
1 67794U 26030AG  26061.77078711  .00020941  00000+0  68467-3 0  9996
2 67794  51.8816 252.9368 0018295  45.8212 314.4272 15.31524899  4022
KUIPER-00279            
1 67795U 26030AH  26061.73782299  .00024526  00000+0  71899-3 0  9992
2 67795  51.8788 252.7203 0006148  29.8669 330.2667 15.35038041  4026
CREW DRAGON 12          
1 67796U 26031A   26061.54331036  .00009842  00000+0  19033-3 0  9998
2 67796  51.6317 107.6867 0008241 149.4104 210.7366 15.48401384554965
STARLINK-36800          
1 67797U 26032A   26061.83335647  .00071338  00000+0  47616-3 0  9991
2 67797  97.2841 247.9778 0001496 106.9964 257.7511 15.75141475  3672
STARLINK-36798          
1 67798U 26032B   26061.83335647  .00057453  00000+0  29915-3 0  9996
2 67798  97.2849 248.0043 0001336  92.5334 336.6980 15.80783468  3613
STARLINK-36804          
1 67799U 26032C   26061.83335647  .00087465  00000+0  58261-3 0  9999
2 67799  97.2842 247.9822 0001447  99.3763 275.3672 15.75137025  3617
STARLINK-36354          
1 67800U 26032D   26061.83335647 -.01901538  00000+0 -13373-1 0  9994
2 67800  97.2851 248.0083 0001630  85.8600 349.0923 15.77225043  3679
STARLINK-36773          
1 67801U 26032E   26061.83335647  .00044050  00000+0  29505-3 0  9995
2 67801  97.2843 247.9897 0001419  86.4993 306.2388 15.75160517  3615
